OPS 6582 (TRANSIT 5B-5) 
1 00965U 64083D   21061.80711602  .00000018  00000-0  11543-4 0  9993
2 00965  90.0232 194.1547 0041448 165.2345 342.6466 13.56751975781675
OSCAR 7 (AO-7)          
1 07530U 74089B   21062.45517587 -.00000033  00000-0  76195-4 0  9995
2 07530 101.8418  37.1223 0011963 225.1254 289.3963 12.53647566118688
UOSAT 2 (UO-11)         
1 14781U 84021B   21062.48210860  .00000141  00000-0  23286-4 0  9997
2 14781  97.5922  67.5486 0009914  73.2862 286.9440 14.83253462991228
NOAA 9                  
1 15427U 84123A   21061.69841617  .00000012  00000-0  29002-4 0  9999
2 15427  98.9803  23.4910 0015804  65.2278 345.0700 14.16123668869847
LUSAT (LO-19)           
1 20442U 90005G   21062.14482809  .00000010  00000-0  20180-4 0  9999
2 20442  98.7283  16.7210 0012783 111.6485 248.6062 14.32977804625663
ITAMSAT (IO-26)         
1 22826U 93061D   21061.67881345 -.00000010  00000-0  14105-4 0  9998
2 22826  98.9184  76.5557 0008504 339.7142  20.3700 14.30445343430967
RADIO ROSTO (RS-15)     
1 23439U 94085A   21062.18619380 -.00000037  00000-0  15882-3 0  9992
2 23439  64.8127 187.8222 0157571 354.3607   5.5539 11.27570670 78351
JAS-2 (FO-29)           
1 24278U 96046B   21062.04547617 -.00000052  00000-0 -18494-4 0  9992
2 24278  98.5777 144.0759 0351222  65.3737 298.3562 13.53102147212102
NOAA 15                 
1 25338U 98030A   21062.48782280  .00000018  00000-0  25924-4 0  9996
2 25338  98.6946  91.8982 0009692 224.7531 135.2868 14.26015435186146
TECHSAT 1B (GO-32)      
1 25397U 98043D   21062.42534593  .00000006  00000-0  22297-4 0  9998
2 25397  98.7599   8.3344 0002096  56.5893 303.5485 14.23702319176622
ISS (ZARYA)             
1 25544U 98067A   21062.50208333  .00001900  00000-0  42599-4 0  9998
2 25544  51.6465 145.4491 0003155  68.7363 106.2776 15.49032027272210
ORSTED                  
1 25635U 99008B   21061.76485145  .00000070  00000-0  24545-4 0  9998
2 25635  96.4621  31.2582 0137034 245.9267 112.7544 14.48268062162009
PHASE 3D (AO-40)        
1 26609U 00072B   21061.45063015 -.00000208  00000-0  00000+0 0  9996
2 26609   9.1894 339.8233 7941421 230.7731  27.6829  1.25586130 93364
PCSAT (NO-44)           
1 26931U 01043C   21061.63368328 -.00000012  00000-0  27186-4 0  9990
2 26931  67.0509 196.1143 0007370 267.9603  92.0655 14.30608138 14078
SAUDISAT 1C (SO-50)     
1 27607U 02058C   21062.38190239  .00000066  00000-0  29825-4 0  9995
2 27607  64.5556 302.6947 0030766  65.1869 295.2428 14.75717975979069
CUTE-1 (CO-55)          
1 27844U 03031E   21061.96905800  .00000058  00000-0  45683-4 0  9992
2 27844  98.6830  71.7847 0010403  33.0371 327.1455 14.22291536916884
CUBESAT XI-IV (CO-57)   
1 27848U 03031J   21062.00102431  .00000043  00000-0  39077-4 0  9995
2 27848  98.6889  72.3841 0010492  45.2068 314.9961 14.21870841916718
MOZHAYETS 4 (RS-22)     
1 27939U 03042A   21062.38600588  .00000130  00000-0  31975-4 0  9991
2 27939  98.1216 200.3342 0011554 252.5496 107.4441 14.66949122931976
INMARSAT 4-F1           
1 28628U 05009A   21062.42808503 -.00000268  00000-0  00000+0 0  9997
2 28628   3.3077  29.8860 0002990 325.2604 103.8674  1.00271588 58298
NOAA 18                 
1 28654U 05018A   21062.12910708  .00000084  00000-0  69961-4 0  9995
2 28654  99.0078 126.5120 0013800 218.7086 141.3098 14.12585877813524
CUBESAT XI-V            
1 28895U 05043F   21061.59227213  .00000192  00000-0  45610-4 0  9997
2 28895  98.0402 197.2770 0016851 182.6393 177.4724 14.63871693818606
METOP-A                 
1 29499U 06044A   21062.48033272 -.00000004  00000-0  17194-4 0  9998
2 29499  98.4878 105.9031 0000819 121.5853  15.4093 14.21499885745684
CARTOSAT-2 (IRS-P7)     
1 29710U 07001B   21062.16286448  .00003257  00000-0  10337-3 0  9991
2 29710  97.8820 139.6818 0171700 254.9767 103.2409 15.20398908764491
FALCONSAT-3             
1 30776U 07006E   21062.12998229  .00006115  00000-0  15182-3 0  9992
2 30776  35.4346  63.0384 0002149 341.2884  18.7765 15.39723115776708
CAPE-1                  
1 31130U 07012P   21062.33800882  .00000235  00000-0  60494-4 0  9998
2 31130  98.2249   2.7772 0095004 313.8991  45.4390 14.56641566736499
CARTOSAT-2A             
1 32783U 08021A   21062.50782801 -.00000111  00000-0 -81189-5 0  9993
2 32783  97.8870 123.9443 0011400 247.4806 112.5202 14.78688254693427
CUTE-1.7+APD II (CO-65) 
1 32785U 08021C   21062.20026605  .00000387  00000-0  47143-4 0  9999
2 32785  97.6011  45.2351 0013007   2.5919 357.5363 14.88645527696438
COMPASS-1               
1 32787U 08021E   21062.44314544  .00000719  00000-0  72560-4 0  9999
2 32787  97.5241  57.7743 0010784 286.9172  73.0866 14.93980127697753
AAUSAT-II               
1 32788U 08021F   21062.43928161  .00000455  00000-0  46085-4 0  9995
2 32788  97.5015  61.5754 0010123 266.1360  93.8704 14.95418497698114
DELFI-C3 (DO-64)        
1 32789U 08021G   21062.10364280  .00002380  00000-0  15599-3 0  9990
2 32789  97.3895 101.5241 0013086 142.5481 217.6662 15.08559472700899
SEEDS II (CO-66)        
1 32791U 08021J   21062.41988845  .00000513  00000-0  56792-4 0  9993
2 32791  97.5633  51.4529 0012284 325.6459  34.3964 14.91296163697052
YUBILEINY (RS-30)       
1 32953U 08025A   21062.39244312  .00000028  00000-0  12906-3 0  9997
2 32953  82.5039 116.9046 0019144 204.9612 155.0550 12.43100163579802
FENGYUN 3A              
1 32958U 08026A   21061.70461028 -.00000010  00000-0  15103-4 0  9997
2 32958  98.4385  40.4506 0007906 314.3114  45.7413 14.18648595661338
PRISM (HITOMI)          
1 33493U 09002B   21062.15860116  .00001649  00000-0  14701-3 0  9998
2 33493  98.1765  19.6745 0013177 279.8673  80.1060 14.97466548658427
STARS (KUKAI)           
1 33498U 09002G   21062.40709586  .00000316  00000-0  49943-4 0  9991
2 33498  98.2300 300.1014 0010326 333.7466  26.3220 14.79289301652208
KKS-1 (KISEKI)          
1 33499U 09002H   21061.87788843  .00000143  00000-0  28957-4 0  9995
2 33499  98.2851 289.3740 0009678  28.4918 331.6818 14.75623510650698
NOAA 19                 
1 33591U 09005A   21062.43656524 -.00000010  00000-0  20063-4 0  9998
2 33591  99.1920  80.4717 0014831  71.5092 288.7689 14.12454075621955
SWISSCUBE               
1 35932U 09051B   21061.73731972  .00000154  00000-0  45683-4 0  9996
2 35932  98.6078 258.3572 0008513  59.8189 300.3850 14.56494535607425
BEESAT-1                
1 35933U 09051C   21062.05081064  .00000137  00000-0  41874-4 0  9992
2 35933  98.6052 260.5289 0006840  71.3317 288.8622 14.56557765607625
ITUPSAT1                
1 35935U 09051E   21062.47290955  .00000115  00000-0  37605-4 0  9994
2 35935  98.6157 261.1231 0009135  69.5920 290.6257 14.55694288607385
XIWANG-1 (HOPE-1)       
1 36122U 09072B   21061.51578059 -.00000004  00000-0  10014-3 0  9996
2 36122 100.1200  46.6610 0008011 354.9479   5.1553 13.16359678538828
CARTOSAT-2B             
1 36795U 10035A   21062.40870121  .00000106  00000-0  21452-4 0  9998
2 36795  97.8847 123.2778 0013107 331.9013  28.1531 14.78707094574459
TISAT 1                 
1 36799U 10035E   21062.46623709  .00000787  00000-0  84404-4 0  9997
2 36799  98.2049 248.9869 0011841 195.4271 164.6587 14.91621920577739
FENGYUN 3B              
1 37214U 10059A   21062.53848162  .00000014  00000-0  30365-4 0  9996
2 37214  99.0727  54.6219 0015975 252.8449 107.0971 14.15977548534346
JUGNU                   
1 37839U 11058B   21062.51831005  .00000326  00000-0  32009-4 0  9998
2 37839  19.9605 151.6602 0019038   4.9434 107.7620 14.12705394485576
SRMSAT                  
1 37841U 11058D   21062.12760456  .00000319  00000-0  30154-4 0  9990
2 37841  19.9708 223.7128 0011772 205.6603 308.9122 14.10686617484836
M-CUBED & EXP-1 PRIME   
1 37855U 11061F   21062.09470696  .00002228  00000-0  11456-3 0  9993
2 37855 101.7240 290.3498 0168181  26.9549 334.0277 15.07256825510621
HORYU-2                 
1 38340U 12025D   21061.44272111  .00000246  00000-0  43544-4 0  9996
2 38340  98.2459 126.7470 0010244 300.0785  59.9408 14.75984148473019
METOP-B                 
1 38771U 12049A   21062.44794193 -.00000005  00000-0  17687-4 0  9993
2 38771  98.6936 124.0068 0001153  20.1493  45.3104 14.21499116438818
SARAL                   
1 39086U 13009A   21062.46729737 -.00000015  00000-0  10532-4 0  9997
2 39086  98.5440 250.1007 0001039 141.3518 218.7740 14.32045510419074
AAUSAT 3                
1 39087U 13009B   21062.53125563  .00000134  00000-0  61196-4 0  9996
2 39087  98.4338 268.1647 0011783 229.1830 130.8360 14.35902415419990
STRAND-1                
1 39090U 13009E   21062.08635251  .00000046  00000-0  31074-4 0  9994
2 39090  98.4360 266.7401 0008222 230.8819 129.1636 14.35171132419802
BRITE-AUSTRIA           
1 39091U 13009F   21062.42037223 -.00000001  00000-0  14826-4 0  9996
2 39091  98.4357 266.1960 0009507 237.7542 122.2723 14.35176429419871
UNIBRITE                
1 39092U 13009G   21062.46949014  .00000001  00000-0  15370-4 0  9995
2 39092  98.4384 265.9378 0008461 231.3298 128.7131 14.35048109419842
SOMP                    
1 39134U 13015E   21061.69513304  .00002589  00000-0  12137-3 0  9992
2 39134  64.8640 159.5177 0007942 227.9719 132.0734 15.22082715434963
BEESAT-3                
1 39135U 13015F   21062.13106948  .00002448  00000-0  12579-3 0  9999
2 39135  64.8679 185.5673 0011039 197.4969 162.5779 15.18989447434887
BEESAT-2                
1 39136U 13015G   21061.75549845  .00002200  00000-0  11528-3 0  9993
2 39136  64.8765 192.7382 0027770 256.8851 102.9176 15.18368384434307
NEE-01 PEGASO           
1 39151U 13018B   21062.23538812  .00000267  00000-0  42045-4 0  9999
2 39151  97.9738 165.3620 0016486 346.8308  13.2471 14.80294595423963
CUBEBUG-1 (CAPITAN BETO)
1 39153U 13018D   21062.22675020  .00000328  00000-0  49355-4 0  9992
2 39153  97.9869 168.3217 0016257 342.2238  17.8404 14.80865925424084
